{
    "links": {
        "self": "http://www.neowsapp.com/rest/v1/neo/3780771?api_key=iIulBulltgU6a56xZRHN4H3l9WmuAYTsLGpBGhQ2"
    },
    "id": "3780771",
    "neo_reference_id": "3780771",
    "name": "(2017 QL2)",
    "designation": "2017 QL2",
    "nasa_jpl_url": "http://ssd.jpl.nasa.gov/sbdb.cgi?sstr=3780771",
    "absolute_magnitude_h": 25.5,
    "estimated_diameter": {
        "kilometers": {
            "estimated_diameter_min": 0.0211132445,
            "estimated_diameter_max": 0.0472106499
        },
        "meters": {
            "estimated_diameter_min": 21.113244479,
            "estimated_diameter_max": 47.2106498806
        },
        "miles": {
            "estimated_diameter_min": 0.0131191578,
            "estimated_diameter_max": 0.0293353287
        },
        "feet": {
            "estimated_diameter_min": 69.2691770164,
            "estimated_diameter_max": 154.8905885541
        }
    },
    "is_potentially_hazardous_asteroid": false,
    "close_approach_data": [
        {
            "close_approach_date": "2017-08-09",
            "close_approach_date_full": "2017-Aug-09 08:18",
            "epoch_date_close_approach": 1502266680000,
            "relative_velocity": {
                "kilometers_per_second": "5.1707018301",
                "kilometers_per_hour": "18614.5265884471",
                "miles_per_hour": "11566.3429238048"
            },
            "miss_distance": {
                "astronomical": "0.0890978224",
                "lunar": "34.6590529136",
                "kilometers": "13328844.452678288",
                "miles": "8282159.8940368544"
            },
            "orbiting_body": "Earth"
        }
    ],
    "orbital_data": {
        "orbit_id": "2",
        "orbit_determination_date": "2017-08-24 06:19:14",
        "first_observation_date": "2017-08-17",
        "last_observation_date": "2017-08-23",
        "data_arc_in_days": 6,
        "observations_used": 14,
        "orbit_uncertainty": "8",
        "minimum_orbit_intersection": ".0836523",
        "jupiter_tisserand_invariant": "4.878",
        "epoch_osculation": "2457985.5",
        "eccentricity": ".1865909273878292",
        "semi_major_axis": "1.33563058702032",
        "inclination": "9.346736152854996",
        "ascending_node_longitude": "325.7215674003339",
        "orbital_period": "563.803751310904",
        "perihelion_distance": "1.086414037140648",
        "perihelion_argument": "335.0558244053874",
        "aphelion_distance": "1.584847136899993",
        "perihelion_time": "2457956.295311741437",
        "mean_anomaly": "18.64777903417144",
        "mean_motion": ".638520050927227",
        "equinox": "J2000",
        "orbit_class": {
            "orbit_class_type": "AMO",
            "orbit_class_description": "Near-Earth asteroid orbits similar to that of 1221 Amor",
            "orbit_class_range": "1.017 AU < q (perihelion) < 1.3 AU"
        }
    },
    "is_sentry_object": false
}